From: horizons@ssd.jpl.nasa.gov (Horizons Ephemeris System)
Subject: [Horizons] SMALL BODY #C(500@10)_T(WISE (C/2010 L5)) (1/1)
Date: February 23, 2021 at 4:21:01 PM PST

Automated mail xmit by MAIL_REQUEST, PID= 22901 Tue Feb 23 16:21:01 2021
++++++++++++++++++++++++++++++++ (part 1 of 1)  +++++++++++++++++++++++++++++++
*******************************************************************************
JPL/HORIZONS                  WISE (C/2010 L5)             2021-Feb-23 16:21:01
Rec #:90003968 (+COV) Soln.date: 2014-Jun-13_19:44:37       # obs: 34 (31 days)

IAU76/J2000 helio. ecliptic osc. elements (au, days, deg., period=Julian yrs):

 EPOCH=  2455379.5 ! 2010-Jul-02.0000000 (TDB)    RMSW= n.a.
  EC= .9037561916724222   QR= .7909008328987752   TP= 2455309.6453834157
  OM= 206.4730991405697   W= 214.7297449578989    IN= 147.0516809571623
  A= 8.217680146309727    MA= 2.922640089029878   ADIST= 15.64445945972068
  PER= 23.557655386436    N= .041838896           ANGMOM= .02110805
  DAN= 5.853              DDN= .86397             L= 356.2861938
  B= -18.0503822          MOID= .113609           TP= 2010-Apr-23.1453834157

Comet physical (GM= km^3/s^2; RAD= km):
  GM= n.a.                RAD= n.a.
  M1=  17.4     M2=  20.6     k1=  16.    k2=  5.      PHCOF=  .030

COMET comments 
1: soln ref.= JPL#6, data arc: 2010-06-14 to 2010-07-15
2: k1=16., k2=5., phase coef.=0.03;
*******************************************************************************


*******************************************************************************
Ephemeris / MAIL_REQUEST Tue Feb 23 16:21:01 2021 Pasadena, USA  / Horizons
*******************************************************************************
Target body name: WISE (C/2010 L5)                {source: JPL#6}
Center body name: Sun (10)                        {source: DE431}
Center-site name: BODY CENTER
*******************************************************************************
Start time      : A.D. 1990-Jan-01 00:00:00.0000 TDB
Stop  time      : A.D. 2020-Dec-31 00:00:00.0000 TDB
Step-size       : 10080 minutes
*******************************************************************************
Center geodetic : 0.00000000,0.00000000,0.0000000 {E-lon(deg),Lat(deg),Alt(km)}
Center cylindric: 0.00000000,0.00000000,0.0000000 {E-lon(deg),Dxy(km),Dz(km)}
Center radii    : 696000.0 x 696000.0 x 696000.0 k{Equator, meridian, pole}    
Small perturbers: Yes                             {source: SB431-N16}
Output units    : AU-D
Output type     : GEOMETRIC cartesian states
Output format   : 6 (LT, range, and range-rate)
Reference frame : Ecliptic of J2000.0
*******************************************************************************
Initial IAU76/J2000 heliocentric ecliptic osculating elements (au, days, deg.):
 EPOCH=  2455379.5 ! 2010-Jul-02.0000000 (TDB)    RMSW= n.a.                  
  EC= .9037561916724222   QR= .7909008328987752   TP= 2455309.6453834157      
  OM= 206.4730991405697   W= 214.7297449578989    IN= 147.0516809571623       
 Equivalent ICRF heliocentric equatorial cartesian coordinates (au, au/d):
  X=-2.073345819220385E-01  Y=-8.804255997976018E-01  Z=-1.105209724447381E+00
 VX=-1.601353982113975E-02 VY=-9.333106144856817E-03 VZ=-5.903259983153159E-03
Comet physical (GM= km^3/s^2; RAD= km):                                        
  GM= n.a.                RAD= n.a.                                           
  M1=  17.4     M2=  20.6     k1=  16.    k2=  5.      PHCOF=  .030           
*******************************************************************************
           JDTDB,            Calendar Date (TDB),                     LT,                     RG,                     RR,
**************************************************************************************************************************
$$SOE
2457692.500000000, A.D. 2016-Oct-31 00:00:00.0000,  7.830978670827608E-02,  1.355891925440257E+01,  2.296928047330569E-03,
2457699.500000000, A.D. 2016-Nov-07 00:00:00.0000,  7.840244400585759E-02,  1.357496236815691E+01,  2.286822722211935E-03,
2457706.500000000, A.D. 2016-Nov-14 00:00:00.0000,  7.849469323863824E-02,  1.359093482768120E+01,  2.276741040572342E-03,
2457713.500000000, A.D. 2016-Nov-21 00:00:00.0000,  7.858653535242820E-02,  1.360683679673738E+01,  2.266682508418556E-03,
2457720.500000000, A.D. 2016-Nov-28 00:00:00.0000,  7.867797127373408E-02,  1.362266843574512E+01,  2.256646669475799E-03,
2457727.500000000, A.D. 2016-Dec-05 00:00:00.0000,  7.876900191172348E-02,  1.363842990212190E+01,  2.246633122048107E-03,
2457734.500000000, A.D. 2016-Dec-12 00:00:00.0000,  7.885962815960824E-02,  1.365412135052255E+01,  2.236641450109159E-03,
2457741.500000000, A.D. 2016-Dec-19 00:00:00.0000,  7.894985088757900E-02,  1.366974293161591E+01,  2.226670815497753E-03,
2457748.500000000, A.D. 2016-Dec-26 00:00:00.0000,  7.903967090998304E-02,  1.368529478640185E+01,  2.216719217538247E-03,
2457755.500000000, A.D. 2017-Jan-02 00:00:00.0000,  7.912908894945277E-02,  1.370077704000029E+01,  2.206784590253950E-03,
2457762.500000000, A.D. 2017-Jan-09 00:00:00.0000,  7.921810569041138E-02,  1.371618981091543E+01,  2.196867232244695E-03,
2457769.500000000, A.D. 2017-Jan-16 00:00:00.0000,  7.930672185521080E-02,  1.373153322421862E+01,  2.186968254035431E-03,
2457776.500000000, A.D. 2017-Jan-23 00:00:00.0000,  7.939493819617921E-02,  1.374680741017146E+01,  2.177087990722103E-03,
2457783.500000000, A.D. 2017-Jan-30 00:00:00.0000,  7.948275546836049E-02,  1.376201249950575E+01,  2.167226334422020E-03,
2457790.500000000, A.D. 2017-Feb-06 00:00:00.0000,  7.957017442079570E-02,  1.377714862191391E+01,  2.157383136368916E-03,
2457797.500000000, A.D. 2017-Feb-13 00:00:00.0000,  7.965719579834189E-02,  1.379221590636395E+01,  2.147558349868512E-03,
2457804.500000000, A.D. 2017-Feb-20 00:00:00.0000,  7.974382034677703E-02,  1.380721448198332E+01,  2.137752070526338E-03,
2457811.500000000, A.D. 2017-Feb-27 00:00:00.0000,  7.983004881883478E-02,  1.382214447910383E+01,  2.127964546976789E-03,
2457818.500000000, A.D. 2017-Mar-06 00:00:00.0000,  7.991588198008555E-02,  1.383700603027985E+01,  2.118196153951342E-03,
2457825.500000000, A.D. 2017-Mar-13 00:00:00.0000,  8.000132061103669E-02,  1.385179927065208E+01,  2.108447192167242E-03,
2457832.500000000, A.D. 2017-Mar-20 00:00:00.0000,  8.008636549250044E-02,  1.386652433541395E+01,  2.098717224845965E-03,
2457839.500000000, A.D. 2017-Mar-27 00:00:00.0000,  8.017101736312689E-02,  1.388118135245875E+01,  2.089004728462556E-03,
2457846.500000000, A.D. 2017-Apr-03 00:00:00.0000,  8.025527691378728E-02,  1.389577044140714E+01,  2.079309378444116E-03,
2457853.500000000, A.D. 2017-Apr-10 00:00:00.0000,  8.033914487018710E-02,  1.391029172791113E+01,  2.069632925486071E-03,
2457860.500000000, A.D. 2017-Apr-17 00:00:00.0000,  8.042262202896272E-02,  1.392474534990402E+01,  2.059976816128319E-03,
2457867.500000000, A.D. 2017-Apr-24 00:00:00.0000,  8.050570922655681E-02,  1.393913145221138E+01,  2.050341642298302E-03,
2457874.500000000, A.D. 2017-May-01 00:00:00.0000,  8.058840731453359E-02,  1.395345018227698E+01,  2.040727628703266E-03,
2457881.500000000, A.D. 2017-May-08 00:00:00.0000,  8.067071715090321E-02,  1.396770168866068E+01,  2.031134891641127E-03,
2457888.500000000, A.D. 2017-May-15 00:00:00.0000,  8.075263959759363E-02,  1.398188612060066E+01,  2.021563514585772E-03,
2457895.500000000, A.D. 2017-May-22 00:00:00.0000,  8.083417551966257E-02,  1.399600362787705E+01,  2.012013571374526E-03,
2457902.500000000, A.D. 2017-May-29 00:00:00.0000,  8.091532578511038E-02,  1.401005436077943E+01,  2.002485132480985E-03,
2457909.500000000, A.D. 2017-Jun-05 00:00:00.0000,  8.099609126395402E-02,  1.402403846994657E+01,  1.992978203019863E-03,
2457916.500000000, A.D. 2017-Jun-12 00:00:00.0000,  8.107647282000451E-02,  1.403795610494271E+01,  1.983492367964171E-03,
2457923.500000000, A.D. 2017-Jun-19 00:00:00.0000,  8.115647127863701E-02,  1.405180740867714E+01,  1.974026032121585E-03,
2457930.500000000, A.D. 2017-Jun-26 00:00:00.0000,  8.123608738312207E-02,  1.406559250984316E+01,  1.964577132931454E-03,
2457937.500000000, A.D. 2017-Jul-03 00:00:00.0000,  8.131532183155080E-02,  1.407931152931150E+01,  1.955145740282496E-03,
2457944.500000000, A.D. 2017-Jul-10 00:00:00.0000,  8.139417535532811E-02,  1.409296459372099E+01,  1.945732957395659E-03,
2457951.500000000, A.D. 2017-Jul-17 00:00:00.0000,  8.147264871524212E-02,  1.410655183479802E+01,  1.936339047489652E-03,
2457958.500000000, A.D. 2017-Jul-24 00:00:00.0000,  8.155074266822576E-02,  1.412007338360145E+01,  1.926963654052867E-03,
2457965.500000000, A.D. 2017-Jul-31 00:00:00.0000,  8.162845795236369E-02,  1.413352936792668E+01,  1.917606249140697E-03,
2457972.500000000, A.D. 2017-Aug-07 00:00:00.0000,  8.170579528419249E-02,  1.414691991183819E+01,  1.908266310289076E-03,
2457979.500000000, A.D. 2017-Aug-14 00:00:00.0000,  8.178275536034263E-02,  1.416024513595379E+01,  1.898943381792465E-03,
2457986.500000000, A.D. 2017-Aug-21 00:00:00.0000,  8.185933886092542E-02,  1.417350515803110E+01,  1.889637106128662E-03,
2457993.500000000, A.D. 2017-Aug-28 00:00:00.0000,  8.193554645374111E-02,  1.418670009369616E+01,  1.880347226626134E-03,
2458000.500000000, A.D. 2017-Sep-04 00:00:00.0000,  8.201137879642408E-02,  1.419983005681483E+01,  1.871073448199967E-03,
2458007.500000000, A.D. 2017-Sep-11 00:00:00.0000,  8.208683652523417E-02,  1.421289515755209E+01,  1.861814868311454E-03,
2458014.500000000, A.D. 2017-Sep-18 00:00:00.0000,  8.216192021644654E-02,  1.422589549568688E+01,  1.852569480157522E-03,
2458021.500000000, A.D. 2017-Sep-25 00:00:00.0000,  8.223663037255996E-02,  1.423883115822417E+01,  1.843336176025344E-03,
2458028.500000000, A.D. 2017-Oct-02 00:00:00.0000,  8.231096750216436E-02,  1.425170223322359E+01,  1.834116174254162E-03,
2458035.500000000, A.D. 2017-Oct-09 00:00:00.0000,  8.238493217133483E-02,  1.426450881869798E+01,  1.824910728294977E-03,
